OBJECT_NAME,OBJECT_ID,EPOCH,MEAN_MOTION,ECCENTRICITY,INCLINATION,RA_OF_ASC_NODE,ARG_OF_PERICENTER,MEAN_ANOMALY,EPHEMERIS_TYPE,CLASSIFICATION_TYPE,NORAD_CAT_ID,ELEMENT_SET_NO,REV_AT_EPOCH,BSTAR,MEAN_MOTION_DOT,MEAN_MOTION_DDOT
ONEWEB-0340,2021-083W,2026-06-13T20:54:00.366912,13.18685500,.0001988,87.9169,336.1150,91.3694,268.7666,0,U,49206,999,22953,-.1152E-3,-.33E-6,0
ONEWEB-0341,2021-083X,2026-06-13T17:25:11.739648,13.18686463,.0002173,87.9161,336.1471,103.0728,257.0647,0,U,49207,999,22953,.10792E-3,.55E-6,0
ONEWEB-0342,2021-083Y,2026-06-13T20:47:07.664352,13.20770561,.000193,87.9192,275.0986,102.8533,257.2816,0,U,49208,999,23634,.19584E-4,.21E-6,0
ONEWEB-0343,2021-083Z,2026-06-13T17:37:20.464896,13.18686695,.0001577,87.9165,336.1443,103.0957,257.0352,0,U,49209,999,22958,.18628E-3,.86E-6,0
ONEWEB-0344,2021-083AA,2026-06-13T20:15:39.056256,13.13471937,.0002108,87.8939,320.9064,103.9186,256.2178,0,U,49210,999,23045,-.88474E-3,-.31E-5,0
ONEWEB-0345,2021-083AB,2026-06-13T20:03:27.902304,13.13470448,.0002031,87.8959,320.8885,103.4084,256.7271,0,U,49211,999,23046,-.62809E-3,-.217E-5,0
ONEWEB-0346,2021-083AC,2026-06-13T17:32:28.826016,13.18686042,.0002398,87.9158,336.1454,82.0737,278.0667,0,U,49212,999,22952,.21689E-3,.98E-6,0
ONEWEB-0348,2021-083AD,2026-06-13T20:32:34.703808,13.20770481,.0002481,87.9194,275.1043,98.7396,261.4018,0,U,49213,999,23637,.19117E-4,.21E-6,0
ONEWEB-0350,2021-083AE,2026-06-13T20:25:31.374912,13.12943358,.0002071,87.8955,320.8895,100.1623,259.9740,0,U,49214,999,23049,-.98517E-3,-.344E-5,0
ONEWEB-0351,2021-083AF,2026-06-13T20:22:40.202688,13.20770184,.0001887,87.9194,275.1044,126.8200,233.3106,0,U,49215,999,23633,-.18716E-3,-.63E-6,0
ONEWEB-0352,2021-083AG,2026-06-13T16:09:27.683712,13.13470050,.0001585,87.8951,320.9323,107.9563,252.1739,0,U,49216,999,23056,.42342E-4,.28E-6,0
ONEWEB-0354,2021-083AH,2026-06-13T19:12:35.165664,13.20772535,.000239,87.9195,275.1132,101.7303,258.4098,0,U,49217,999,23636,.73931E-4,.43E-6,0
ONEWEB-0355,2021-083AJ,2026-06-13T20:30:29.492928,13.13470086,.0001847,87.8946,320.8975,103.9815,256.1520,0,U,49218,999,23046,-.71322E-3,-.248E-5,0
ONEWEB-0357,2021-083AK,2026-06-13T20:56:49.572672,13.20772241,.0001921,87.9192,275.0929,106.4582,253.6762,0,U,49219,999,23637,.53014E-4,.35E-6,0
ONEWEB-0332,2021-090A,2026-06-13T20:52:00.056640,13.14501851,.0001668,87.8958,290.3705,100.3794,259.7524,0,U,49279,999,22714,.28636E-3,.119E-5,0
ONEWEB-0347,2021-090B,2026-06-13T20:42:16.803072,13.20770683,.000173,87.9192,275.1032,98.5396,261.5934,0,U,49280,999,23060,-.71992E-5,.1E-6,0
ONEWEB-0349,2021-090C,2026-06-13T19:39:15.338592,13.20771789,.0001993,87.9195,275.1124,101.4020,258.7337,0,U,49281,999,22938,-.23833E-3,-.84E-6,0
ONEWEB-0353,2021-090D,2026-06-13T20:40:36.045120,13.14502966,.0001638,87.8961,290.3675,98.6640,261.4675,0,U,49282,999,22714,.12729E-3,.6E-6,0
ONEWEB-0356,2021-090E,2026-06-13T17:47:44.020608,13.20773056,.000218,87.9193,275.1211,78.8382,281.2996,0,U,49283,999,22937,-.11597E-3,-.34E-6,0
ONEWEB-0358,2021-090F,2026-06-13T20:22:16.879872,13.20236911,.00021,87.9194,275.1045,96.3246,263.8126,0,U,49284,999,23011,.85859E-4,.48E-6,0
ONEWEB-0359,2021-090G,2026-06-13T20:15:36.582624,13.20773261,.0002252,87.9191,275.1005,100.5620,259.5767,0,U,49285,999,23009,-.14596E-3,-.46E-6,0
ONEWEB-0360,2021-090H,2026-06-13T20:01:03.774144,13.20778197,.0002102,87.9192,275.1088,102.4586,257.6782,0,U,49286,999,22940,.15226E-2,.632E-5,0
ONEWEB-0361,2021-090J,2026-06-13T19:34:23.589120,13.20770926,.0002094,87.9194,275.1108,98.7224,261.4146,0,U,49287,999,22985,-.61326E-4,-.12E-6,0
ONEWEB-0362,2021-090K,2026-06-13T20:11:26.946240,13.19724175,.000187,87.9166,305.6445,106.7520,253.3818,0,U,49288,999,22647,-.75774E-4,-.17E-6,0
ONEWEB-0363,2021-090L,2026-06-13T19:56:12.333984,13.20770312,.0002072,87.9193,275.1080,91.3331,268.8040,0,U,49289,999,22986,-.15797E-3,-.51E-6,0
ONEWEB-0364,2021-090M,2026-06-13T20:51:58.338144,13.20770992,.0002003,87.9190,275.1083,100.9471,259.1887,0,U,49290,999,23100,-.23878E-4,.3E-7,0
ONEWEB-0365,2021-090N,2026-06-13T20:25:06.184128,13.19724602,.0001772,87.9172,305.6310,99.9972,260.1361,0,U,49291,999,22598,-.11085E-3,-.31E-6,0
ONEWEB-0366,2021-090P,2026-06-13T20:36:01.778688,13.14502756,.0001942,87.8959,290.3701,100.4496,259.6853,0,U,49292,999,22712,-.74401E-4,-.15E-6,0
ONEWEB-0367,2021-090Q,2026-06-13T19:55:00.845760,13.20769560,.0001867,87.9194,275.1093,105.3046,254.8294,0,U,49293,999,22938,-.13959E-3,-.44E-6,0
ONEWEB-0368,2021-090R,2026-06-13T19:17:24.857088,13.20769956,.0001514,87.9184,275.1254,81.4837,278.6468,0,U,49294,999,23053,-.4382E-4,-.5E-7,0
