ONEWEB-0340             
1 49206U 21083W   26164.87083758 -.00000033  00000+0 -11520-3 0  9999
2 49206  87.9169 336.1150 0001988  91.3694 268.7666 13.18685500229539
ONEWEB-0341             
1 49207U 21083X   26164.72583032  .00000055  00000+0  10792-3 0  9996
2 49207  87.9161 336.1471 0002173 103.0728 257.0647 13.18686463229533
ONEWEB-0342             
1 49208U 21083Y   26164.86606093  .00000021  00000+0  19584-4 0  9997
2 49208  87.9192 275.0986 0001930 102.8533 257.2816 13.20770561236344
ONEWEB-0343             
1 49209U 21083Z   26164.73426464  .00000086  00000+0  18628-3 0  9994
2 49209  87.9165 336.1443 0001577 103.0957 257.0352 13.18686695229584
ONEWEB-0344             
1 49210U 21083AA  26164.84420204 -.00000310  00000+0 -88474-3 0  9992
2 49210  87.8939 320.9064 0002108 103.9186 256.2178 13.13471937230459
ONEWEB-0345             
1 49211U 21083AB  26164.83573961 -.00000217  00000+0 -62809-3 0  9991
2 49211  87.8959 320.8885 0002031 103.4084 256.7271 13.13470448230465
ONEWEB-0346             
1 49212U 21083AC  26164.73088919  .00000098  00000+0  21689-3 0  9991
2 49212  87.9158 336.1454 0002398  82.0737 278.0667 13.18686042229528
ONEWEB-0348             
1 49213U 21083AD  26164.85595722  .00000021  00000+0  19117-4 0  9990
2 49213  87.9194 275.1043 0002481  98.7396 261.4018 13.20770481236374
ONEWEB-0350             
1 49214U 21083AE  26164.85105758 -.00000344  00000+0 -98517-3 0  9997
2 49214  87.8955 320.8895 0002071 100.1623 259.9740 13.12943358230495
ONEWEB-0351             
1 49215U 21083AF  26164.84907642 -.00000063  00000+0 -18716-3 0  9990
2 49215  87.9194 275.1044 0001887 126.8200 233.3106 13.20770184236335
ONEWEB-0352             
1 49216U 21083AG  26164.67323708  .00000028  00000+0  42342-4 0  9999
2 49216  87.8951 320.9323 0001585 107.9563 252.1739 13.13470050230563
ONEWEB-0354             
1 49217U 21083AH  26164.80040701  .00000043  00000+0  73931-4 0  9999
2 49217  87.9195 275.1132 0002390 101.7303 258.4098 13.20772535236365
ONEWEB-0355             
1 49218U 21083AJ  26164.85450802 -.00000248  00000+0 -71322-3 0  9992
2 49218  87.8946 320.8975 0001847 103.9815 256.1520 13.13470086230468
ONEWEB-0357             
1 49219U 21083AK  26164.87279598  .00000035  00000+0  53014-4 0  9997
2 49219  87.9192 275.0929 0001921 106.4582 253.6762 13.20772241236377
ONEWEB-0332             
1 49279U 21090A   26164.86944510  .00000119  00000+0  28636-3 0  9997
2 49279  87.8958 290.3705 0001668 100.3794 259.7524 13.14501851227148
ONEWEB-0347             
1 49280U 21090B   26164.86269448  .00000010  00000+0 -71992-5 0  9995
2 49280  87.9192 275.1032 0001730  98.5396 261.5934 13.20770683230600
ONEWEB-0349             
1 49281U 21090C   26164.81892753 -.00000084  00000+0 -23833-3 0  9993
2 49281  87.9195 275.1124 0001993 101.4020 258.7337 13.20771789229381
ONEWEB-0353             
1 49282U 21090D   26164.86152830  .00000060  00000+0  12729-3 0  9998
2 49282  87.8961 290.3675 0001638  98.6640 261.4675 13.14502966227143
ONEWEB-0356             
1 49283U 21090E   26164.74148172 -.00000034  00000+0 -11597-3 0  9995
2 49283  87.9193 275.1211 0002180  78.8382 281.2996 13.20773056229375
ONEWEB-0358             
1 49284U 21090F   26164.84880648  .00000048  00000+0  85859-4 0  9994
2 49284  87.9194 275.1045 0002100  96.3246 263.8126 13.20236911230117
ONEWEB-0359             
1 49285U 21090G   26164.84417341 -.00000046  00000+0 -14596-3 0  9990
2 49285  87.9191 275.1005 0002252 100.5620 259.5767 13.20773261230097
ONEWEB-0360             
1 49286U 21090H   26164.83407146  .00000632  00000+0  15226-2 0  9991
2 49286  87.9192 275.1088 0002102 102.4586 257.6782 13.20778197229408
ONEWEB-0361             
1 49287U 21090J   26164.81555080 -.00000012  00000+0 -61326-4 0  9999
2 49287  87.9194 275.1108 0002094  98.7224 261.4146 13.20770926229858
ONEWEB-0362             
1 49288U 21090K   26164.84128410 -.00000017  00000+0 -75774-4 0  9993
2 49288  87.9166 305.6445 0001870 106.7520 253.3818 13.19724175226475
ONEWEB-0363             
1 49289U 21090L   26164.83069831 -.00000051  00000+0 -15797-3 0  9990
2 49289  87.9193 275.1080 0002072  91.3331 268.8040 13.20770312229866
ONEWEB-0364             
1 49290U 21090M   26164.86942521  .00000003  00000+0 -23878-4 0  9997
2 49290  87.9190 275.1083 0002003 100.9471 259.1887 13.20770992231009
ONEWEB-0365             
1 49291U 21090N   26164.85076602 -.00000031  00000+0 -11085-3 0  9993
2 49291  87.9172 305.6310 0001772  99.9972 260.1361 13.19724602225981
ONEWEB-0366             
1 49292U 21090P   26164.85835392 -.00000015  00000+0 -74401-4 0  9997
2 49292  87.8959 290.3701 0001942 100.4496 259.6853 13.14502756227122
ONEWEB-0367             
1 49293U 21090Q   26164.82987090 -.00000044  00000+0 -13959-3 0  9990
2 49293  87.9194 275.1093 0001867 105.3046 254.8294 13.20769560229382
ONEWEB-0368             
1 49294U 21090R   26164.80375992 -.00000005  00000+0 -43820-4 0  9999
2 49294  87.9184 275.1254 0001514  81.4837 278.6468 13.20769956230537
